STARLINK-5369           
1 54837U 22177T   24271.63051719  .00000144  00000+0  25730-4 0  9993
2 54837  43.0010 122.4740 0001061 277.2634  82.8087 15.02533564 97526
STARLINK-5372           
1 54838U 22177U   24271.62274911  .00000394  00000+0  44206-4 0  9990
2 54838  43.0017 122.4149 0000995 270.8005  89.2723 15.02530692 96541
STARLINK-5368           
1 54840U 22177W   24272.01273290 -.00000549  00000+0 -25543-4 0  9993
2 54840  43.0026 120.1809 0001013 265.9962  94.0764 15.02538069 96603
STARLINK-4659           
1 54841U 22177X   24271.89198852  .00003059  00000+0  24141-3 0  9998
2 54841  43.0021 120.9968 0001423 268.8692  91.1987 15.02538433 96587
STARLINK-5387           
1 54842U 22177Y   24271.87311954 -.00000061  00000+0  10582-4 0  9993
2 54842  42.9996 120.8542 0000889 273.4543  86.6198 15.02535993 97566
STARLINK-5304           
1 54843U 22177Z   24271.61941897  .00000660  00000+0  63941-4 0  9992
2 54843  43.0022 122.3895 0001159 262.1538  97.9173 15.02532238 96541
STARLINK-5388           
1 54844U 22177AA  24272.00162981 -.00003943  00000+0 -27682-3 0  9996
2 54844  43.0031 120.0748 0001265 278.2611  81.8088 15.02559487 96601
STARLINK-5082           
1 54845U 22177AB  24271.61053886  .00003725  00000+0  29067-3 0  9991
2 54845  43.0013 122.3234 0001040 273.3666  86.7058 15.02532725 97523
STARLINK-5360           
1 54846U 22177AC  24272.00275632 -.00002303  00000+0 -15548-3 0  9993
2 54846  42.9999 120.1083 0002902 239.1760 120.8797 15.02517170 96601
STARLINK-5061           
1 54847U 22177AD  24271.89694515  .00000957  00000+0  85879-4 0  9991
2 54847  43.0038  95.0182 0001401 268.8831  91.1851 15.02534276 96886
STARLINK-5432           
1 54848U 22177AE  24271.60425207  .00001088  00000+0  95601-4 0  9991
2 54848  43.0031 110.1261 0001071 263.6283  96.4438 15.02536947 96688
STARLINK-5434           
1 54849U 22177AF  24271.99941691 -.00000159  00000+0  32785-5 0  9998
2 54849  43.0013 120.0774 0001226 264.7445  95.3258 15.02530552 96608
STARLINK-5087           
1 54850U 22177AG  24271.86572775 -.00000358  00000+0 -11452-4 0  9998
2 54850  43.0023 108.6460 0000949 277.8866  82.1869 15.02522760 97704
STARLINK-5084           
1 54851U 22177AH  24271.53666532  .00001041  00000+0  92162-4 0  9993
2 54851  43.0019 110.4777 0001163 275.7240  84.3469 15.02533134 97655
STARLINK-5418           
1 54852U 22177AJ  24271.85906424  .00000582  00000+0  58173-4 0  9999
2 54852  43.0045 108.5965 0001343 273.8467  86.2222 15.02538685 97702
STARLINK-5427           
1 54853U 22177AK  24271.86239582  .00002651  00000+0  21127-3 0  9992
2 54853  43.0036 108.6221 0001211 264.8596  95.2108 15.02528860 97703
STARLINK-5419           
1 54854U 22177AL  24271.85351248  .00000549  00000+0  55683-4 0  9995
2 54854  43.0022 108.5534 0001228 273.4046  86.6656 15.02537575 97704
STARLINK-5416           
1 54855U 22177AM  24271.92220730  .00002309  00000+0  18592-3 0  9998
2 54855  43.0008 108.2107 0001154 275.4625  84.6086 15.02537428 96739
STARLINK-5086           
1 54856U 22177AN  24271.90222347 -.00007551  00000+0 -54414-3 0  9992
2 54856  43.0025 108.0603 0001422 273.6722  86.3958 15.02562111 96738
STARLINK-5078           
1 54857U 22177AP  24271.84685625  .00001889  00000+0  15488-3 0  9992
2 54857  43.0017 108.5086 0001003 268.9396  91.1332 15.02535767 97704
STARLINK-5407           
1 54858U 22177AQ  24271.84907810  .00000275  00000+0  35402-4 0  9993
2 54858  43.0019 108.5205 0001001 271.4139  88.6589 15.02531303 97709
STARLINK-5409           
1 54859U 22177AR  24271.83908637  .00001315  00000+0  11238-3 0  9997
2 54859  43.0026 108.4462 0001682 268.5085  91.5565 15.02535891 97707
STARLINK-5406           
1 54860U 22177AS  24271.90001326  .00001582  00000+0  13220-3 0  9995
2 54860  43.0047 108.0441 0001413 275.6015  84.4666 15.02535357 96731
STARLINK-5400           
1 54861U 22177AT  24271.85018508  .00001441  00000+0  12170-3 0  9997
2 54861  43.0025 108.5299 0001393 274.7196  85.3488 15.02535294 97701
STARLINK-5403           
1 54862U 22177AU  24271.60758201  .00000375  00000+0  42817-4 0  9999
2 54862  43.0016 110.1633 0001083 270.1573  89.9145 15.02537139 97663
STARLINK-5405           
1 54863U 22177AV  24271.97538077 -.00000044  00000+0  11783-4 0  9999
2 54863  43.0010 107.7487 0001128 278.3854  81.6861 15.02526032 96741
STARLINK-5359           
1 54864U 22177AW  24271.83020188  .00000775  00000+0  72450-4 0  9992
2 54864  42.9988 108.3748 0001008 263.0963  96.9765 15.02538186 97702
STARLINK-5411           
1 54865U 22177AX  24271.97870048 -.00000806  00000+0 -44552-4 0  9995
2 54865  43.0031 107.7745 0001579 267.6546  92.4116 15.02541416 96625
STARLINK-5398           
1 54866U 22177AY  24271.82021334 -.00000365  00000+0 -11964-4 0  9997
2 54866  43.0046 108.3057 0001096 264.3467  95.7250 15.02543288 97709
STARLINK-5396           
1 54867U 22177AZ  24271.83242597  .00003326  00000+0  26112-3 0  9993
2 54867  42.9988 108.3992 0001468 277.2612  82.8063 15.02537504 97702
