OBJECT_NAME,OBJECT_ID,EPOCH,MEAN_MOTION,ECCENTRICITY,INCLINATION,RA_OF_ASC_NODE,ARG_OF_PERICENTER,MEAN_ANOMALY,EPHEMERIS_TYPE,CLASSIFICATION_TYPE,NORAD_CAT_ID,ELEMENT_SET_NO,REV_AT_EPOCH,BSTAR,MEAN_MOTION_DOT,MEAN_MOTION_DDOT
STARLINK-5369,2022-177T,2024-09-27T15:07:56.685216,15.02533564,.0001061,43.0010,122.4740,277.2634,82.8087,0,U,54837,999,9752,.2573E-4,.144E-5,0
STARLINK-5372,2022-177U,2024-09-27T14:56:45.523104,15.02530692,.0000995,43.0017,122.4149,270.8005,89.2723,0,U,54838,999,9654,.44206E-4,.394E-5,0
STARLINK-5368,2022-177W,2024-09-28T00:18:20.122560,15.02538069,.0001013,43.0026,120.1809,265.9962,94.0764,0,U,54840,999,9660,-.25543E-4,-.549E-5,0
STARLINK-4659,2022-177X,2024-09-27T21:24:27.808128,15.02538433,.0001423,43.0021,120.9968,268.8692,91.1987,0,U,54841,999,9658,.24141E-3,.3059E-4,0
STARLINK-5387,2022-177Y,2024-09-27T20:57:17.528256,15.02535993,.0000889,42.9996,120.8542,273.4543,86.6198,0,U,54842,999,9756,.10582E-4,-.61E-6,0
STARLINK-5304,2022-177Z,2024-09-27T14:51:57.799008,15.02532238,.0001159,43.0022,122.3895,262.1538,97.9173,0,U,54843,999,9654,.63941E-4,.66E-5,0
STARLINK-5388,2022-177AA,2024-09-28T00:02:20.815584,15.02559487,.0001265,43.0031,120.0748,278.2611,81.8088,0,U,54844,999,9660,-.27682E-3,-.3943E-4,0
STARLINK-5082,2022-177AB,2024-09-27T14:39:10.557504,15.02532725,.000104,43.0013,122.3234,273.3666,86.7058,0,U,54845,999,9752,.29067E-3,.3725E-4,0
STARLINK-5360,2022-177AC,2024-09-28T00:03:58.146048,15.02517170,.0002902,42.9999,120.1083,239.1760,120.8797,0,U,54846,999,9660,-.15548E-3,-.2303E-4,0
STARLINK-5061,2022-177AD,2024-09-27T21:31:36.060960,15.02534276,.0001401,43.0038,95.0182,268.8831,91.1851,0,U,54847,999,9688,.85879E-4,.957E-5,0
STARLINK-5432,2022-177AE,2024-09-27T14:30:07.378848,15.02536947,.0001071,43.0031,110.1261,263.6283,96.4438,0,U,54848,999,9668,.95601E-4,.1088E-4,0
STARLINK-5434,2022-177AF,2024-09-27T23:59:09.621024,15.02530552,.0001226,43.0013,120.0774,264.7445,95.3258,0,U,54849,999,9660,.32785E-5,-.159E-5,0
STARLINK-5087,2022-177AG,2024-09-27T20:46:38.877600,15.02522760,.0000949,43.0023,108.6460,277.8866,82.1869,0,U,54850,999,9770,-.11452E-4,-.358E-5,0
STARLINK-5084,2022-177AH,2024-09-27T12:52:47.883648,15.02533134,.0001163,43.0019,110.4777,275.7240,84.3469,0,U,54851,999,9765,.92162E-4,.1041E-4,0
STARLINK-5418,2022-177AJ,2024-09-27T20:37:03.150336,15.02538685,.0001343,43.0045,108.5965,273.8467,86.2222,0,U,54852,999,9770,.58173E-4,.582E-5,0
STARLINK-5427,2022-177AK,2024-09-27T20:41:50.998848,15.02528860,.0001211,43.0036,108.6221,264.8596,95.2108,0,U,54853,999,9770,.21127E-3,.2651E-4,0
STARLINK-5419,2022-177AL,2024-09-27T20:29:03.478272,15.02537575,.0001228,43.0022,108.5534,273.4046,86.6656,0,U,54854,999,9770,.55683E-4,.549E-5,0
STARLINK-5416,2022-177AM,2024-09-27T22:07:58.710720,15.02537428,.0001154,43.0008,108.2107,275.4625,84.6086,0,U,54855,999,9673,.18592E-3,.2309E-4,0
STARLINK-5086,2022-177AN,2024-09-27T21:39:12.107808,15.02562111,.0001422,43.0025,108.0603,273.6722,86.3958,0,U,54856,999,9673,-.54414E-3,-.7551E-4,0
STARLINK-5078,2022-177AP,2024-09-27T20:19:28.380000,15.02535767,.0001003,43.0017,108.5086,268.9396,91.1332,0,U,54857,999,9770,.15488E-3,.1889E-4,0
STARLINK-5407,2022-177AQ,2024-09-27T20:22:40.347840,15.02531303,.0001001,43.0019,108.5205,271.4139,88.6589,0,U,54858,999,9770,.35402E-4,.275E-5,0
STARLINK-5409,2022-177AR,2024-09-27T20:08:17.062368,15.02535891,.0001682,43.0026,108.4462,268.5085,91.5565,0,U,54859,999,9770,.11238E-3,.1315E-4,0
STARLINK-5406,2022-177AS,2024-09-27T21:36:01.145664,15.02535357,.0001413,43.0047,108.0441,275.6015,84.4666,0,U,54860,999,9673,.1322E-3,.1582E-4,0
STARLINK-5400,2022-177AT,2024-09-27T20:24:15.990912,15.02535294,.0001393,43.0025,108.5299,274.7196,85.3488,0,U,54861,999,9770,.1217E-3,.1441E-4,0
STARLINK-5403,2022-177AU,2024-09-27T14:34:55.085664,15.02537139,.0001083,43.0016,110.1633,270.1573,89.9145,0,U,54862,999,9766,.42817E-4,.375E-5,0
STARLINK-5405,2022-177AV,2024-09-27T23:24:32.898528,15.02526032,.0001128,43.0010,107.7487,278.3854,81.6861,0,U,54863,999,9674,.11783E-4,-.44E-6,0
STARLINK-5359,2022-177AW,2024-09-27T19:55:29.442432,15.02538186,.0001008,42.9988,108.3748,263.0963,96.9765,0,U,54864,999,9770,.7245E-4,.775E-5,0
STARLINK-5411,2022-177AX,2024-09-27T23:29:19.721472,15.02541416,.0001579,43.0031,107.7745,267.6546,92.4116,0,U,54865,999,9662,-.44552E-4,-.806E-5,0
STARLINK-5398,2022-177AY,2024-09-27T19:41:06.432576,15.02543288,.0001096,43.0046,108.3057,264.3467,95.7250,0,U,54866,999,9770,-.11964E-4,-.365E-5,0
STARLINK-5396,2022-177AZ,2024-09-27T19:58:41.603808,15.02537504,.0001468,42.9988,108.3992,277.2612,82.8063,0,U,54867,999,9770,.26112E-3,.3326E-4,0
